[{"OBJECT_NAME":"OBJECT F","OBJECT_ID":"2023-072F","EPOCH":"2026-03-09T23:31:37.259904","MEAN_MOTION":15.29470958,"ECCENTRICITY":0.00062878,"INCLINATION":97.5173,"RA_OF_ASC_NODE":265.798,"ARG_OF_PERICENTER":19.0017,"MEAN_ANOMALY":341.1456,"EPHEMERIS_TYPE":0,"CLASSIFICATION_TYPE":"U","NORAD_CAT_ID":56748,"ELEMENT_SET_NO":999,"REV_AT_EPOCH":15460,"BSTAR":0.00043416252,"MEAN_MOTION_DOT":0.00012341,"MEAN_MOTION_DDOT":0},{"OBJECT_NAME":"STARLINK-30873","OBJECT_ID":"2023-171V","EPOCH":"2026-03-09T22:00:01.999584","MEAN_MOTION":15.26671592,"ECCENTRICITY":0.00011318,"INCLINATION":42.9997,"RA_OF_ASC_NODE":283.5385,"ARG_OF_PERICENTER":303.4192,"MEAN_ANOMALY":66.6377,"EPHEMERIS_TYPE":0,"CLASSIFICATION_TYPE":"U","NORAD_CAT_ID":58249,"ELEMENT_SET_NO":999,"REV_AT_EPOCH":577,"BSTAR":0.0023010917,"MEAN_MOTION_DOT":0.00061854,"MEAN_MOTION_DDOT":0}]
